CORVUS BC1              
1 42847U 17042Y   26068.93334460  .00004853  00000+0  33801-3 0  9990
2 42847  97.3986 234.9925 0013283  71.1953 289.0714 15.05817892472152
STARLINK-4275           
1 53008U 22076Y   26068.78874537  .00000244  00000+0  33402-4 0  9999
2 53008  53.2171  93.6662 0001398  82.4868 277.6283 15.08840177202860
